[{"CCSDS_OMM_VERS":"2.0","COMMENT":"GENERATED VIA SPACE-TRACK.ORG API","CREATION_DATE":"2020-09-13T16:56:47","ORIGINATOR":"18 SPCS","OBJECT_NAME":"ONEWEB-0007","OBJECT_ID":"2019-010D","CENTER_NAME":"EARTH","REF_FRAME":"TEME","TIME_SYSTEM":"UTC","MEAN_ELEMENT_THEORY":"SGP4","EPOCH":"2020-09-13T06:00:00.999648","MEAN_MOTION":"13.21836432","ECCENTRICITY":"0.00021140","INCLINATION":"87.9193","RA_OF_ASC_NODE":"316.8482","ARG_OF_PERICENTER":"96.1163","MEAN_ANOMALY":"353.2990","EPHEMERIS_TYPE":"0","CLASSIFICATION_TYPE":"U","NORAD_CAT_ID":"44060","ELEMENT_SET_NO":"999","REV_AT_EPOCH":"171","BSTAR":"-0.08578200000000","MEAN_MOTION_DOT":"-0.00035283","MEAN_MOTION_DDOT":"0.0000000000000","SEMIMAJOR_AXIS":"7555.850","PERIOD":"108.939","APOAPSIS":"1179.312","PERIAPSIS":"1176.118","OBJECT_TYPE":"PAYLOAD","RCS_SIZE":"LARGE","COUNTRY_CODE":"UK","LAUNCH_DATE":"2019-02-27","SITE":"FRGUI","DECAY_DATE":null,"FILE":"2822150","GP_ID":"161322059","TLE_LINE0":"0 ONEWEB-0007","TLE_LINE1":"1 44060U 19010D   20257.25001157 -.00035283 +00000-0 -85782-1 0  9996","TLE_LINE2":"2 44060 087.9193 316.8482 0002114 096.1163 353.2990 13.21836432001712"},{"CCSDS_OMM_VERS":"2.0","COMMENT":"GENERATED VIA SPACE-TRACK.ORG API","CREATION_DATE":"2020-09-13T22:16:09","ORIGINATOR":"18 SPCS","OBJECT_NAME":"ONEWEB-0007","OBJECT_ID":"2019-010D","CENTER_NAME":"EARTH","REF_FRAME":"TEME","TIME_SYSTEM":"UTC","MEAN_ELEMENT_THEORY":"SGP4","EPOCH":"2020-09-13T22:00:00.999936","MEAN_MOTION":"13.21814186","ECCENTRICITY":"0.00021910","INCLINATION":"87.9194","RA_OF_ASC_NODE":"316.7154","ARG_OF_PERICENTER":"95.9073","MEAN_ANOMALY":"284.0550","EPHEMERIS_TYPE":"0","CLASSIFICATION_TYPE":"U","NORAD_CAT_ID":"44060","ELEMENT_SET_NO":"999","REV_AT_EPOCH":"7474","BSTAR":"-0.01454400000000","MEAN_MOTION_DOT":"-0.00005989","MEAN_MOTION_DDOT":"0.0000000000000","SEMIMAJOR_AXIS":"7555.935","PERIOD":"108.941","APOAPSIS":"1179.455","PERIAPSIS":"1176.144","OBJECT_TYPE":"PAYLOAD","RCS_SIZE":"LARGE","COUNTRY_CODE":"UK","LAUNCH_DATE":"2019-02-27","SITE":"FRGUI","DECAY_DATE":null,"FILE":"2822219","GP_ID":"161323525","TLE_LINE0":"0 ONEWEB-0007","TLE_LINE1":"1 44060U 19010D   20257.91667824 -.00005989  00000-0 -14544-1 0  9996","TLE_LINE2":"2 44060  87.9194 316.7154 0002191  95.9073 284.0550 13.21814186 74748"},{"CCSDS_OMM_VERS":"2.0","COMMENT":"GENERATED VIA SPACE-TRACK.ORG API","CREATION_DATE":"2020-09-14T17:56:55","ORIGINATOR":"18 SPCS","OBJECT_NAME":"ONEWEB-0007","OBJECT_ID":"2019-010D","CENTER_NAME":"EARTH","REF_FRAME":"TEME","TIME_SYSTEM":"UTC","MEAN_ELEMENT_THEORY":"SGP4","EPOCH":"2020-09-14T14:00:01.000224","MEAN_MOTION":"13.21797887","ECCENTRICITY":"0.00021150","INCLINATION":"87.9193","RA_OF_ASC_NODE":"316.5816","ARG_OF_PERICENTER":"94.9234","MEAN_ANOMALY":"215.5765","EPHEMERIS_TYPE":"0","CLASSIFICATION_TYPE":"U","NORAD_CAT_ID":"44060","ELEMENT_SET_NO":"999","REV_AT_EPOCH":"171","BSTAR":"0.09597400000000","MEAN_MOTION_DOT":"0.00039808","MEAN_MOTION_DDOT":"0.0000000000000","SEMIMAJOR_AXIS":"7555.997","PERIOD":"108.942","APOAPSIS":"1179.460","PERIAPSIS":"1176.264","OBJECT_TYPE":"PAYLOAD","RCS_SIZE":"LARGE","COUNTRY_CODE":"UK","LAUNCH_DATE":"2019-02-27","SITE":"FRGUI","DECAY_DATE":null,"FILE":"2823152","GP_ID":"161382324","TLE_LINE0":"0 ONEWEB-0007","TLE_LINE1":"1 44060U 19010D   20258.58334491 +.00039808 +00000-0 +95974-1 0  9992","TLE_LINE2":"2 44060 087.9193 316.5816 0002115 094.9234 215.5765 13.21797887001716"},{"CCSDS_OMM_VERS":"2.0","COMMENT":"GENERATED VIA SPACE-TRACK.ORG API","CREATION_DATE":"2020-09-14T22:36:10","ORIGINATOR":"18 SPCS","OBJECT_NAME":"ONEWEB-0007","OBJECT_ID":"2019-010D","CENTER_NAME":"EARTH","REF_FRAME":"TEME","TIME_SYSTEM":"UTC","MEAN_ELEMENT_THEORY":"SGP4","EPOCH":"2020-09-14T22:00:00.999936","MEAN_MOTION":"13.21812946","ECCENTRICITY":"0.00021630","INCLINATION":"87.9191","RA_OF_ASC_NODE":"316.5159","ARG_OF_PERICENTER":"95.8947","MEAN_ANOMALY":"359.8722","EPHEMERIS_TYPE":"0","CLASSIFICATION_TYPE":"U","NORAD_CAT_ID":"44060","ELEMENT_SET_NO":"999","REV_AT_EPOCH":"7487","BSTAR":"-0.01132500000000","MEAN_MOTION_DOT":"-0.00004661","MEAN_MOTION_DDOT":"0.0000000000000","SEMIMAJOR_AXIS":"7555.940","PERIOD":"108.941","APOAPSIS":"1179.439","PERIAPSIS":"1176.170","OBJECT_TYPE":"PAYLOAD","RCS_SIZE":"LARGE","COUNTRY_CODE":"UK","LAUNCH_DATE":"2019-02-27","SITE":"FRGUI","DECAY_DATE":null,"FILE":"2823191","GP_ID":"161384650","TLE_LINE0":"0 ONEWEB-0007","TLE_LINE1":"1 44060U 19010D   20258.91667824 -.00004661  00000-0 -11325-1 0  9997","TLE_LINE2":"2 44060  87.9191 316.5159 0002163  95.8947 359.8722 13.21812946 74874"},{"CCSDS_OMM_VERS":"2.0","COMMENT":"GENERATED VIA SPACE-TRACK.ORG API","CREATION_DATE":"2020-09-15T19:28:25","ORIGINATOR":"18 SPCS","OBJECT_NAME":"ONEWEB-0007","OBJECT_ID":"2019-010D","CENTER_NAME":"EARTH","REF_FRAME":"TEME","TIME_SYSTEM":"UTC","MEAN_ELEMENT_THEORY":"SGP4","EPOCH":"2020-09-15T14:00:01.000224","MEAN_MOTION":"13.21797260","ECCENTRICITY":"0.00021120","INCLINATION":"87.9186","RA_OF_ASC_NODE":"316.3820","ARG_OF_PERICENTER":"94.8759","MEAN_ANOMALY":"291.4260","EPHEMERIS_TYPE":"0","CLASSIFICATION_TYPE":"U","NORAD_CAT_ID":"44060","ELEMENT_SET_NO":"999","REV_AT_EPOCH":"179","BSTAR":"0.09255300000000","MEAN_MOTION_DOT":"0.00038384","MEAN_MOTION_DDOT":"0.0000000000000","SEMIMAJOR_AXIS":"7555.999","PERIOD":"108.942","APOAPSIS":"1179.460","PERIAPSIS":"1176.269","OBJECT_TYPE":"PAYLOAD","RCS_SIZE":"LARGE","COUNTRY_CODE":"UK","LAUNCH_DATE":"2019-02-27","SITE":"FRGUI","DECAY_DATE":null,"FILE":"2823991","GP_ID":"161438570","TLE_LINE0":"0 ONEWEB-0007","TLE_LINE1":"1 44060U 19010D   20259.58334491 +.00038384 +00000-0 +92553-1 0  9991","TLE_LINE2":"2 44060 087.9186 316.3820 0002112 094.8759 291.4260 13.21797260001795"},{"CCSDS_OMM_VERS":"2.0","COMMENT":"GENERATED VIA SPACE-TRACK.ORG API","CREATION_DATE":"2020-09-16T01:47:08","ORIGINATOR":"18 SPCS","OBJECT_NAME":"ONEWEB-0007","OBJECT_ID":"2019-010D","CENTER_NAME":"EARTH","REF_FRAME":"TEME","TIME_SYSTEM":"UTC","MEAN_ELEMENT_THEORY":"SGP4","EPOCH":"2020-09-15T22:00:01.999584","MEAN_MOTION":"13.21810514","ECCENTRICITY":"0.00021510","INCLINATION":"87.9184","RA_OF_ASC_NODE":"316.3163","ARG_OF_PERICENTER":"95.4700","MEAN_ANOMALY":"76.1527","EPHEMERIS_TYPE":"0","CLASSIFICATION_TYPE":"U","NORAD_CAT_ID":"44060","ELEMENT_SET_NO":"999","REV_AT_EPOCH":"171","BSTAR":"-0.00749290000000","MEAN_MOTION_DOT":"-0.00003080","MEAN_MOTION_DDOT":"0.0000000000000","SEMIMAJOR_AXIS":"7555.949","PERIOD":"108.941","APOAPSIS":"1179.439","PERIAPSIS":"1176.189","OBJECT_TYPE":"PAYLOAD","RCS_SIZE":"LARGE","COUNTRY_CODE":"UK","LAUNCH_DATE":"2019-02-27","SITE":"FRGUI","DECAY_DATE":null,"FILE":"2824434","GP_ID":"161468286","TLE_LINE0":"0 ONEWEB-0007","TLE_LINE1":"1 44060U 19010D   20259.91668981 -.00003080 +00000-0 -74929-2 0  9997","TLE_LINE2":"2 44060 087.9184 316.3163 0002151 095.4700 076.1527 13.21810514001713"},{"CCSDS_OMM_VERS":"2.0","COMMENT":"GENERATED VIA SPACE-TRACK.ORG API","CREATION_DATE":"2020-09-16T06:16:09","ORIGINATOR":"18 SPCS","OBJECT_NAME":"ONEWEB-0007","OBJECT_ID":"2019-010D","CENTER_NAME":"EARTH","REF_FRAME":"TEME","TIME_SYSTEM":"UTC","MEAN_ELEMENT_THEORY":"SGP4","EPOCH":"2020-09-16T06:00:00.999648","MEAN_MOTION":"13.21835674","ECCENTRICITY":"0.00020790","INCLINATION":"87.9181","RA_OF_ASC_NODE":"316.2495","ARG_OF_PERICENTER":"96.0617","MEAN_ANOMALY":"220.7592","EPHEMERIS_TYPE":"0","CLASSIFICATION_TYPE":"U","NORAD_CAT_ID":"44060","ELEMENT_SET_NO":"999","REV_AT_EPOCH":"7504","BSTAR":"-0.09416800000000","MEAN_MOTION_DOT":"-0.00038718","MEAN_MOTION_DDOT":"0.0000000000000","SEMIMAJOR_AXIS":"7555.853","PERIOD":"108.939","APOAPSIS":"1179.289","PERIAPSIS":"1176.147","OBJECT_TYPE":"PAYLOAD","RCS_SIZE":"LARGE","COUNTRY_CODE":"UK","LAUNCH_DATE":"2019-02-27","SITE":"FRGUI","DECAY_DATE":null,"FILE":"2824473","GP_ID":"161470029","TLE_LINE0":"0 ONEWEB-0007","TLE_LINE1":"1 44060U 19010D   20260.25001157 -.00038718  00000-0 -94168-1 0  9994","TLE_LINE2":"2 44060  87.9181 316.2495 0002079  96.0617 220.7592 13.21835674 75040"},{"CCSDS_OMM_VERS":"2.0","COMMENT":"GENERATED VIA SPACE-TRACK.ORG API","CREATION_DATE":"2020-09-16T23:28:41","ORIGINATOR":"18 SPCS","OBJECT_NAME":"ONEWEB-0007","OBJECT_ID":"2019-010D","CENTER_NAME":"EARTH","REF_FRAME":"TEME","TIME_SYSTEM":"UTC","MEAN_ELEMENT_THEORY":"SGP4","EPOCH":"2020-09-16T14:00:01.999872","MEAN_MOTION":"13.21794689","ECCENTRICITY":"0.00021110","INCLINATION":"87.9178","RA_OF_ASC_NODE":"316.1824","ARG_OF_PERICENTER":"94.7593","MEAN_ANOMALY":"7.3943","EPHEMERIS_TYPE":"0","CLASSIFICATION_TYPE":"U","NORAD_CAT_ID":"44060","ELEMENT_SET_NO":"999","REV_AT_EPOCH":"171","BSTAR":"0.09878000000000","MEAN_MOTION_DOT":"0.00040975","MEAN_MOTION_DDOT":"0.0000000000000","SEMIMAJOR_AXIS":"7556.009","PERIOD":"108.942","APOAPSIS":"1179.469","PERIAPSIS":"1176.279","OBJECT_TYPE":"PAYLOAD","RCS_SIZE":"LARGE","COUNTRY_CODE":"UK","LAUNCH_DATE":"2019-02-27","SITE":"FRGUI","DECAY_DATE":null,"FILE":"2825427","GP_ID":"161529534","TLE_LINE0":"0 ONEWEB-0007","TLE_LINE1":"1 44060U 19010D   20260.58335648 +.00040975 +00000-0 +98780-1 0  9995","TLE_LINE2":"2 44060 087.9178 316.1824 0002111 094.7593 007.3943 13.21794689001718"}]